[{"OBJECT_NAME":"KUIPER-00019","OBJECT_ID":"2025-088L","EPOCH":"2026-03-09T09:15:44.819424","MEAN_MOTION":14.79929148,"ECCENTRICITY":4.57e-5,"INCLINATION":51.9001,"RA_OF_ASC_NODE":100.439,"ARG_OF_PERICENTER":83.3518,"MEAN_ANOMALY":276.7496,"EPHEMERIS_TYPE":0,"CLASSIFICATION_TYPE":"U","NORAD_CAT_ID":63734,"ELEMENT_SET_NO":999,"REV_AT_EPOCH":4746,"BSTAR":0.00025930847,"MEAN_MOTION_DOT":1.756e-5,"MEAN_MOTION_DDOT":0},{"OBJECT_NAME":"DRESDEN","OBJECT_ID":"2025-185A","EPOCH":"2026-03-09T17:16:36.875136","MEAN_MOTION":14.773332,"ECCENTRICITY":0.00118457,"INCLINATION":97.9609,"RA_OF_ASC_NODE":153.1305,"ARG_OF_PERICENTER":62.0124,"MEAN_ANOMALY":298.2283,"EPHEMERIS_TYPE":0,"CLASSIFICATION_TYPE":"U","NORAD_CAT_ID":65297,"ELEMENT_SET_NO":999,"REV_AT_EPOCH":2913,"BSTAR":0.0014833733,"MEAN_MOTION_DOT":0.0001051,"MEAN_MOTION_DDOT":0}]
