KUIPER-00019            
1 63734U 25088L   26068.38593541  .00001756  00000+0  25931-3 0  9997
2 63734  51.9001 100.4390 0000457  83.3518 276.7496 14.79929148 47468
DRESDEN                 
1 65297U 25185A   26068.71987124  .00010510  00000+0  14834-2 0  9999
2 65297  97.9609 153.1305 0011846  62.0124 298.2283 14.77333200 29133
